IRIDIUM 39              
1 25042U 97069D   25328.03033095  .00000835  00000+0  21227-3 0  9999
2 25042  86.3907 142.6562 0019338 128.4126 231.8819 14.49461873472116
IRIDIUM 38              
1 25043U 97069E   25328.05456963  .00000501  00000+0  15841-3 0  9990
2 25043  86.3974 165.9644 0000887  20.2423 339.8810 14.38288149468934
IRIDIUM 42              
1 25077U 97077A   25328.04861054  .00000446  00000+0  14530-3 0  9998
2 25077  86.3984 172.3292 0001610  66.7989 293.3378 14.36508776464141
IRIDIUM 44              
1 25078U 97077B   25328.05763681  .00000466  00000+0  14056-3 0  9992
2 25078  86.3964 153.8402 0001587 147.8088 212.3208 14.40408911466714
IRIDIUM 45              
1 25104U 97082A   25328.10705872  .00026100  00000+0  75939-3 0  9992
2 25104  86.3538 329.8515 0104386  89.6569 271.6640 15.29928182476421
IRIDIUM 24              
1 25105U 97082B   25327.61532937  .00000449  00000+0  13005-3 0  9992
2 25105  86.3929  12.6664 0009130 270.6888  89.3266 14.42301253466194
IRIDIUM 51              
1 25262U 98018A   25328.04042144  .00092625  00000+0  11444-2 0  9991
2 25262  86.3744 335.8143 0056675 353.5676   6.4852 15.57846218471736
IRIDIUM 57              
1 25273U 98019B   25327.81915657  .00000480  00000+0  15840-3 0  9999
2 25273  86.3952  78.3244 0001964  94.2430 265.8991 14.36029756447697
